[{"OBJECT_NAME":"ONEWEB-0516","OBJECT_ID":"2022-138X","EPOCH":"2026-03-09T18:02:01.013568","MEAN_MOTION":13.19725082,"ECCENTRICITY":0.00017935,"INCLINATION":87.9225,"RA_OF_ASC_NODE":324.7879,"ARG_OF_PERICENTER":83.2447,"MEAN_ANOMALY":276.889,"EPHEMERIS_TYPE":0,"CLASSIFICATION_TYPE":"U","NORAD_CAT_ID":54134,"ELEMENT_SET_NO":999,"REV_AT_EPOCH":16371,"BSTAR":-0.00019554332,"MEAN_MOTION_DOT":-6.5e-7,"MEAN_MOTION_DDOT":0},{"OBJECT_NAME":"METEOR 3-6","OBJECT_ID":"1994-003A","EPOCH":"2026-03-09T19:16:37.191936","MEAN_MOTION":13.17059795,"ECCENTRICITY":0.00162952,"INCLINATION":82.5663,"RA_OF_ASC_NODE":157.4504,"ARG_OF_PERICENTER":96.7518,"MEAN_ANOMALY":263.5459,"EPHEMERIS_TYPE":0,"CLASSIFICATION_TYPE":"U","NORAD_CAT_ID":22969,"ELEMENT_SET_NO":999,"REV_AT_EPOCH":54415,"BSTAR":-0.0003016254,"MEAN_MOTION_DOT":-1.04e-6,"MEAN_MOTION_DDOT":0}]
